CCSDS_OMM_VERS = 2.0
CREATION_DATE  = 
ORIGINATOR     = 

OBJECT_NAME    = SL-4 R/B
OBJECT_ID      = 2014-021B
CENTER_NAME    = EARTH
REF_FRAME      = TEME
TIME_SYSTEM    = UTC
MEAN_ELEMENT_THEORY = SGP/SGP4

EPOCH          = 2025-12-06T15:10:37.337376
MEAN_MOTION    = 15.36449968
ECCENTRICITY   = .0102313
INCLINATION    = 51.6086
RA_OF_ASC_NODE = 70.2716
ARG_OF_PERICENTER = 124.1129
MEAN_ANOMALY   = 236.9612

EPHEMERIS_TYPE = 0
CLASSIFICATION_TYPE = U
NORAD_CAT_ID   = 39679
ELEMENT_SET_NO = 999
REV_AT_EPOCH   = 64195
BSTAR          = .47337E-3
MEAN_MOTION_DOT = .20002E-3
MEAN_MOTION_DDOT = 0

CCSDS_OMM_VERS = 2.0
CREATION_DATE  = 
ORIGINATOR     = 

OBJECT_NAME    = ALOS-2
OBJECT_ID      = 2014-029A
CENTER_NAME    = EARTH
REF_FRAME      = TEME
TIME_SYSTEM    = UTC
MEAN_ELEMENT_THEORY = SGP/SGP4

EPOCH          = 2025-12-06T12:29:54.834720
MEAN_MOTION    = 14.79466407
ECCENTRICITY   = .00015175
INCLINATION    = 97.9236
RA_OF_ASC_NODE = 75.4559
ARG_OF_PERICENTER = 105.6706
MEAN_ANOMALY   = 254.4673

EPHEMERIS_TYPE = 0
CLASSIFICATION_TYPE = U
NORAD_CAT_ID   = 39766
ELEMENT_SET_NO = 999
REV_AT_EPOCH   = 62309
BSTAR          = .49410274E-3
MEAN_MOTION_DOT = .364E-4
MEAN_MOTION_DDOT = 0

CCSDS_OMM_VERS = 2.0
CREATION_DATE  = 
ORIGINATOR     = 

OBJECT_NAME    = YAOGAN-29
OBJECT_ID      = 2015-069A
CENTER_NAME    = EARTH
REF_FRAME      = TEME
TIME_SYSTEM    = UTC
MEAN_ELEMENT_THEORY = SGP/SGP4

EPOCH          = 2025-12-06T14:40:49.496736
MEAN_MOTION    = 14.82872443
ECCENTRICITY   = .00005064
INCLINATION    = 98.0223
RA_OF_ASC_NODE = 3.7635
ARG_OF_PERICENTER = 357.5326
MEAN_ANOMALY   = 2.5885

EPHEMERIS_TYPE = 0
CLASSIFICATION_TYPE = U
NORAD_CAT_ID   = 41038
ELEMENT_SET_NO = 999
REV_AT_EPOCH   = 54208
BSTAR          = .12119521E-3
MEAN_MOTION_DOT = .928E-5
MEAN_MOTION_DDOT = 0

CCSDS_OMM_VERS = 2.0
CREATION_DATE  = 
ORIGINATOR     = 

OBJECT_NAME    = ASTRO-H (HITOMI)
OBJECT_ID      = 2016-012A
CENTER_NAME    = EARTH
REF_FRAME      = TEME
TIME_SYSTEM    = UTC
MEAN_ELEMENT_THEORY = SGP/SGP4

EPOCH          = 2025-12-06T09:46:55.850304
MEAN_MOTION    = 15.09293028
ECCENTRICITY   = .00094752
INCLINATION    = 30.9989
RA_OF_ASC_NODE = 238.1941
ARG_OF_PERICENTER = 114.7865
MEAN_ANOMALY   = 245.3759

EPHEMERIS_TYPE = 0
CLASSIFICATION_TYPE = U
NORAD_CAT_ID   = 41337
ELEMENT_SET_NO = 999
REV_AT_EPOCH   = 53812
BSTAR          = .34891694E-3
MEAN_MOTION_DOT = .5797E-4
MEAN_MOTION_DDOT = 0

CCSDS_OMM_VERS = 2.0
CREATION_DATE  = 
ORIGINATOR     = 

OBJECT_NAME    = HXMT (HUIYAN)
OBJECT_ID      = 2017-034A
CENTER_NAME    = EARTH
REF_FRAME      = TEME
TIME_SYSTEM    = UTC
MEAN_ELEMENT_THEORY = SGP/SGP4

EPOCH          = 2025-12-06T14:21:33.869952
MEAN_MOTION    = 15.16172998
ECCENTRICITY   = .00323563
INCLINATION    = 43.0117
RA_OF_ASC_NODE = 173.7072
ARG_OF_PERICENTER = 3.9927
MEAN_ANOMALY   = 356.1173

EPHEMERIS_TYPE = 0
CLASSIFICATION_TYPE = U
NORAD_CAT_ID   = 42758
ELEMENT_SET_NO = 999
REV_AT_EPOCH   = 46840
BSTAR          = .32318694E-3
MEAN_MOTION_DOT = .6198E-4
MEAN_MOTION_DDOT = 0

CCSDS_OMM_VERS = 2.0
CREATION_DATE  = 
ORIGINATOR     = 

OBJECT_NAME    = CZ-2C R/B
OBJECT_ID      = 2018-054D
CENTER_NAME    = EARTH
REF_FRAME      = TEME
TIME_SYSTEM    = UTC
MEAN_ELEMENT_THEORY = SGP/SGP4

EPOCH          = 2025-12-06T09:20:40.646976
MEAN_MOTION    = 15.72509424
ECCENTRICITY   = .00165044
INCLINATION    = 35.1329
RA_OF_ASC_NODE = 223.9154
ARG_OF_PERICENTER = 76.4536
MEAN_ANOMALY   = 283.8034

EPHEMERIS_TYPE = 0
CLASSIFICATION_TYPE = U
NORAD_CAT_ID   = 43521
ELEMENT_SET_NO = 999
REV_AT_EPOCH   = 41405
BSTAR          = .93051745E-3
MEAN_MOTION_DOT = .132048E-2
MEAN_MOTION_DDOT = 0

CCSDS_OMM_VERS = 2.0
CREATION_DATE  = 
ORIGINATOR     = 

OBJECT_NAME    = SAOCOM 1A
OBJECT_ID      = 2018-076A
CENTER_NAME    = EARTH
REF_FRAME      = TEME
TIME_SYSTEM    = UTC
MEAN_ELEMENT_THEORY = SGP/SGP4

EPOCH          = 2025-12-06T14:18:09.316224
MEAN_MOTION    = 14.82147126
ECCENTRICITY   = .00014901
INCLINATION    = 97.8853
RA_OF_ASC_NODE = 165.1078
ARG_OF_PERICENTER = 87.8964
MEAN_ANOMALY   = 272.2420

EPHEMERIS_TYPE = 0
CLASSIFICATION_TYPE = U
NORAD_CAT_ID   = 43641
ELEMENT_SET_NO = 999
REV_AT_EPOCH   = 38757
BSTAR          = .12812043E-3
MEAN_MOTION_DOT = .968E-5
MEAN_MOTION_DDOT = 0

CCSDS_OMM_VERS = 2.0
CREATION_DATE  = 
ORIGINATOR     = 

OBJECT_NAME    = H-2A R/B
OBJECT_ID      = 2018-084L
CENTER_NAME    = EARTH
REF_FRAME      = TEME
TIME_SYSTEM    = UTC
MEAN_ELEMENT_THEORY = SGP/SGP4

EPOCH          = 2025-12-06T15:19:51.263328
MEAN_MOTION    = 15.37052057
ECCENTRICITY   = .00278757
INCLINATION    = 98.8773
RA_OF_ASC_NODE = 173.4548
ARG_OF_PERICENTER = 347.5114
MEAN_ANOMALY   = 12.5432

EPHEMERIS_TYPE = 0
CLASSIFICATION_TYPE = U
NORAD_CAT_ID   = 43682
ELEMENT_SET_NO = 999
REV_AT_EPOCH   = 39146
BSTAR          = .79761714E-3
MEAN_MOTION_DOT = .29269E-3
MEAN_MOTION_DDOT = 0

CCSDS_OMM_VERS = 2.0
CREATION_DATE  = 
ORIGINATOR     = 

OBJECT_NAME    = SAOCOM 1B
OBJECT_ID      = 2020-059A
CENTER_NAME    = EARTH
REF_FRAME      = TEME
TIME_SYSTEM    = UTC
MEAN_ELEMENT_THEORY = SGP/SGP4

EPOCH          = 2025-12-06T13:25:57.230688
MEAN_MOTION    = 14.82149038
ECCENTRICITY   = .00012523
INCLINATION    = 97.8849
RA_OF_ASC_NODE = 164.1730
ARG_OF_PERICENTER = 87.2052
MEAN_ANOMALY   = 272.9305

EPHEMERIS_TYPE = 0
CLASSIFICATION_TYPE = U
NORAD_CAT_ID   = 46265
ELEMENT_SET_NO = 999
REV_AT_EPOCH   = 28495
BSTAR          = .78112183E-4
MEAN_MOTION_DOT = .57E-5
MEAN_MOTION_DDOT = 0

CCSDS_OMM_VERS = 2.0
CREATION_DATE  = 
ORIGINATOR     = 

OBJECT_NAME    = CSS (TIANHE)
OBJECT_ID      = 2021-035A
CENTER_NAME    = EARTH
REF_FRAME      = TEME
TIME_SYSTEM    = UTC
MEAN_ELEMENT_THEORY = SGP/SGP4

EPOCH          = 2025-12-06T15:05:32.998560
MEAN_MOTION    = 15.58799060
ECCENTRICITY   = .00095344
INCLINATION    = 41.4683
RA_OF_ASC_NODE = 53.7961
ARG_OF_PERICENTER = 342.8614
MEAN_ANOMALY   = 17.1901

EPHEMERIS_TYPE = 0
CLASSIFICATION_TYPE = U
NORAD_CAT_ID   = 48274
ELEMENT_SET_NO = 999
REV_AT_EPOCH   = 26307
BSTAR          = .36466504E-3
MEAN_MOTION_DOT = .28802E-3
MEAN_MOTION_DDOT = 0

CCSDS_OMM_VERS = 2.0
CREATION_DATE  = 
ORIGINATOR     = 

OBJECT_NAME    = COSMOS 2550
OBJECT_ID      = 2021-056A
CENTER_NAME    = EARTH
REF_FRAME      = TEME
TIME_SYSTEM    = UTC
MEAN_ELEMENT_THEORY = SGP/SGP4

EPOCH          = 2025-12-06T12:45:06.981120
MEAN_MOTION    = 15.33831192
ECCENTRICITY   = .0008392
INCLINATION    = 67.1444
RA_OF_ASC_NODE = 322.7124
ARG_OF_PERICENTER = 270.0197
MEAN_ANOMALY   = 89.9996

EPHEMERIS_TYPE = 0
CLASSIFICATION_TYPE = U
NORAD_CAT_ID   = 48865
ELEMENT_SET_NO = 999
REV_AT_EPOCH   = 24917
BSTAR          = .81497302E-4
MEAN_MOTION_DOT = .2491E-4
MEAN_MOTION_DDOT = 0

CCSDS_OMM_VERS = 2.0
CREATION_DATE  = 
ORIGINATOR     = 

OBJECT_NAME    = CZ-2C R/B
OBJECT_ID      = 2022-058K
CENTER_NAME    = EARTH
REF_FRAME      = TEME
TIME_SYSTEM    = UTC
MEAN_ELEMENT_THEORY = SGP/SGP4

EPOCH          = 2025-12-06T13:07:33.971808
MEAN_MOTION    = 15.48070272
ECCENTRICITY   = .00460312
INCLINATION    = 50.1912
RA_OF_ASC_NODE = 75.1214
ARG_OF_PERICENTER = 172.9477
MEAN_ANOMALY   = 187.2148

EPHEMERIS_TYPE = 0
CLASSIFICATION_TYPE = U
NORAD_CAT_ID   = 52794
ELEMENT_SET_NO = 999
REV_AT_EPOCH   = 19567
BSTAR          = .72203675E-3
MEAN_MOTION_DOT = .39941E-3
MEAN_MOTION_DDOT = 0

